[{"OBJECT_NAME":"QIANFAN-18","OBJECT_ID":"2024-140T","EPOCH":"2026-03-05T14:10:36.680448","MEAN_MOTION":13.51003677,"ECCENTRICITY":0.00131347,"INCLINATION":88.9721,"RA_OF_ASC_NODE":290.403,"ARG_OF_PERICENTER":315.1489,"MEAN_ANOMALY":44.86,"EPHEMERIS_TYPE":0,"CLASSIFICATION_TYPE":"U","NORAD_CAT_ID":60396,"ELEMENT_SET_NO":999,"REV_AT_EPOCH":7871,"BSTAR":0.0001560981,"MEAN_MOTION_DOT":1.13e-6,"MEAN_MOTION_DDOT":0},{"OBJECT_NAME":"QIANFAN-19","OBJECT_ID":"2024-185A","EPOCH":"2026-03-05T15:27:26.683776","MEAN_MOTION":14.1438726,"ECCENTRICITY":0.00086308,"INCLINATION":88.9759,"RA_OF_ASC_NODE":68.4219,"ARG_OF_PERICENTER":50.9103,"MEAN_ANOMALY":309.2851,"EPHEMERIS_TYPE":0,"CLASSIFICATION_TYPE":"U","NORAD_CAT_ID":61552,"ELEMENT_SET_NO":999,"REV_AT_EPOCH":8138,"BSTAR":0.00034544367,"MEAN_MOTION_DOT":6.75e-6,"MEAN_MOTION_DDOT":0},{"OBJECT_NAME":"QIANFAN-20","OBJECT_ID":"2024-185B","EPOCH":"2026-03-05T13:42:20.659680","MEAN_MOTION":14.08933559,"ECCENTRICITY":0.00078938,"INCLINATION":88.9756,"RA_OF_ASC_NODE":68.8378,"ARG_OF_PERICENTER":82.7572,"MEAN_ANOMALY":277.4509,"EPHEMERIS_TYPE":0,"CLASSIFICATION_TYPE":"U","NORAD_CAT_ID":61553,"ELEMENT_SET_NO":999,"REV_AT_EPOCH":8115,"BSTAR":0.00037292625,"MEAN_MOTION_DOT":6.59e-6,"MEAN_MOTION_DDOT":0},{"OBJECT_NAME":"QIANFAN-21","OBJECT_ID":"2024-185C","EPOCH":"2026-03-05T14:31:48.840960","MEAN_MOTION":14.22728308,"ECCENTRICITY":0.00130182,"INCLINATION":88.9677,"RA_OF_ASC_NODE":67.2537,"ARG_OF_PERICENTER":92.8767,"MEAN_ANOMALY":267.3915,"EPHEMERIS_TYPE":0,"CLASSIFICATION_TYPE":"U","NORAD_CAT_ID":61554,"ELEMENT_SET_NO":999,"REV_AT_EPOCH":8175,"BSTAR":0.00038154224,"MEAN_MOTION_DOT":8.69e-6,"MEAN_MOTION_DDOT":0},{"OBJECT_NAME":"QIANFAN-22","OBJECT_ID":"2024-185D","EPOCH":"2026-03-05T15:35:50.615232","MEAN_MOTION":13.86338847,"ECCENTRICITY":0.00086057,"INCLINATION":88.974,"RA_OF_ASC_NODE":70.1451,"ARG_OF_PERICENTER":99.9355,"MEAN_ANOMALY":260.2788,"EPHEMERIS_TYPE":0,"CLASSIFICATION_TYPE":"U","NORAD_CAT_ID":61555,"ELEMENT_SET_NO":999,"REV_AT_EPOCH":8042,"BSTAR":0.00026583567,"MEAN_MOTION_DOT":3.21e-6,"MEAN_MOTION_DDOT":0},{"OBJECT_NAME":"QIANFAN-23","OBJECT_ID":"2024-185E","EPOCH":"2026-03-05T15:27:09.918720","MEAN_MOTION":14.16392441,"ECCENTRICITY":0.00095695,"INCLINATION":88.9751,"RA_OF_ASC_NODE":68.1926,"ARG_OF_PERICENTER":58.7788,"MEAN_ANOMALY":301.4337,"EPHEMERIS_TYPE":0,"CLASSIFICATION_TYPE":"U","NORAD_CAT_ID":61556,"ELEMENT_SET_NO":999,"REV_AT_EPOCH":8148,"BSTAR":0.0003683339,"MEAN_MOTION_DOT":7.46e-6,"MEAN_MOTION_DDOT":0},{"OBJECT_NAME":"QIANFAN-24","OBJECT_ID":"2024-185F","EPOCH":"2026-03-05T14:36:17.274528","MEAN_MOTION":14.23932444,"ECCENTRICITY":0.00106076,"INCLINATION":88.9735,"RA_OF_ASC_NODE":67.4661,"ARG_OF_PERICENTER":38.9956,"MEAN_ANOMALY":321.2,"EPHEMERIS_TYPE":0,"CLASSIFICATION_TYPE":"U","NORAD_CAT_ID":61557,"ELEMENT_SET_NO":999,"REV_AT_EPOCH":8181,"BSTAR":0.00045140442,"MEAN_MOTION_DOT":1.049e-5,"MEAN_MOTION_DDOT":0},{"OBJECT_NAME":"QIANFAN-25","OBJECT_ID":"2024-185G","EPOCH":"2026-03-05T13:34:32.636064","MEAN_MOTION":14.05995162,"ECCENTRICITY":0.00119152,"INCLINATION":88.9748,"RA_OF_ASC_NODE":68.7966,"ARG_OF_PERICENTER":65.5993,"MEAN_ANOMALY":294.6432,"EPHEMERIS_TYPE":0,"CLASSIFICATION_TYPE":"U","NORAD_CAT_ID":61558,"ELEMENT_SET_NO":999,"REV_AT_EPOCH":8114,"BSTAR":0.0003509153,"MEAN_MOTION_DOT":5.89e-6,"MEAN_MOTION_DDOT":0},{"OBJECT_NAME":"QIANFAN-26","OBJECT_ID":"2024-185H","EPOCH":"2026-03-05T14:38:26.861568","MEAN_MOTION":13.77861457,"ECCENTRICITY":0.00076895,"INCLINATION":88.9746,"RA_OF_ASC_NODE":70.7896,"ARG_OF_PERICENTER":112.7225,"MEAN_ANOMALY":247.4755,"EPHEMERIS_TYPE":0,"CLASSIFICATION_TYPE":"U","NORAD_CAT_ID":61559,"ELEMENT_SET_NO":999,"REV_AT_EPOCH":8008,"BSTAR":0.00028947113,"MEAN_MOTION_DOT":3.03e-6,"MEAN_MOTION_DDOT":0},{"OBJECT_NAME":"QIANFAN-27","OBJECT_ID":"2024-185J","EPOCH":"2026-03-05T14:38:23.893728","MEAN_MOTION":14.27443467,"ECCENTRICITY":0.00086581,"INCLINATION":88.9748,"RA_OF_ASC_NODE":67.209,"ARG_OF_PERICENTER":32.3946,"MEAN_ANOMALY":327.7778,"EPHEMERIS_TYPE":0,"CLASSIFICATION_TYPE":"U","NORAD_CAT_ID":61560,"ELEMENT_SET_NO":999,"REV_AT_EPOCH":8198,"BSTAR":0.00028926426,"MEAN_MOTION_DOT":7.24e-6,"MEAN_MOTION_DDOT":0},{"OBJECT_NAME":"QIANFAN-28","OBJECT_ID":"2024-185K","EPOCH":"2026-03-05T14:52:07.231296","MEAN_MOTION":14.28212873,"ECCENTRICITY":0.00082675,"INCLINATION":88.9764,"RA_OF_ASC_NODE":67.215,"ARG_OF_PERICENTER":33.4124,"MEAN_ANOMALY":326.7591,"EPHEMERIS_TYPE":0,"CLASSIFICATION_TYPE":"U","NORAD_CAT_ID":61561,"ELEMENT_SET_NO":999,"REV_AT_EPOCH":8200,"BSTAR":0.00047762508,"MEAN_MOTION_DOT":1.204e-5,"MEAN_MOTION_DDOT":0},{"OBJECT_NAME":"QIANFAN-29","OBJECT_ID":"2024-185L","EPOCH":"2026-03-05T14:44:22.102944","MEAN_MOTION":13.5104364,"ECCENTRICITY":0.00103692,"INCLINATION":88.9718,"RA_OF_ASC_NODE":72.7301,"ARG_OF_PERICENTER":159.7217,"MEAN_ANOMALY":200.4348,"EPHEMERIS_TYPE":0,"CLASSIFICATION_TYPE":"U","NORAD_CAT_ID":61562,"ELEMENT_SET_NO":999,"REV_AT_EPOCH":7898,"BSTAR":0.00030084085,"MEAN_MOTION_DOT":2.07e-6,"MEAN_MOTION_DDOT":0},{"OBJECT_NAME":"QIANFAN-30","OBJECT_ID":"2024-185M","EPOCH":"2026-03-05T13:51:51.552000","MEAN_MOTION":13.50018693,"ECCENTRICITY":0.00086694,"INCLINATION":88.9738,"RA_OF_ASC_NODE":72.2911,"ARG_OF_PERICENTER":144.0028,"MEAN_ANOMALY":216.1708,"EPHEMERIS_TYPE":0,"CLASSIFICATION_TYPE":"U","NORAD_CAT_ID":61563,"ELEMENT_SET_NO":999,"REV_AT_EPOCH":7924,"BSTAR":0.00030580475,"MEAN_MOTION_DOT":2.07e-6,"MEAN_MOTION_DDOT":0},{"OBJECT_NAME":"QIANFAN-31","OBJECT_ID":"2024-185N","EPOCH":"2026-03-05T13:48:35.082720","MEAN_MOTION":13.58003042,"ECCENTRICITY":0.00083373,"INCLINATION":88.9723,"RA_OF_ASC_NODE":71.9613,"ARG_OF_PERICENTER":135.594,"MEAN_ANOMALY":224.5885,"EPHEMERIS_TYPE":0,"CLASSIFICATION_TYPE":"U","NORAD_CAT_ID":61564,"ELEMENT_SET_NO":999,"REV_AT_EPOCH":7940,"BSTAR":0.00028864971,"MEAN_MOTION_DOT":2.21e-6,"MEAN_MOTION_DDOT":0},{"OBJECT_NAME":"QIANFAN-32","OBJECT_ID":"2024-185P","EPOCH":"2026-03-05T15:33:49.865184","MEAN_MOTION":13.50763937,"ECCENTRICITY":0.00097147,"INCLINATION":88.9782,"RA_OF_ASC_NODE":72.4433,"ARG_OF_PERICENTER":172.5569,"MEAN_ANOMALY":187.5728,"EPHEMERIS_TYPE":0,"CLASSIFICATION_TYPE":"U","NORAD_CAT_ID":61565,"ELEMENT_SET_NO":999,"REV_AT_EPOCH":7923,"BSTAR":0.00022654585,"MEAN_MOTION_DOT":1.58e-6,"MEAN_MOTION_DDOT":0},{"OBJECT_NAME":"QIANFAN-33","OBJECT_ID":"2024-185Q","EPOCH":"2026-03-05T14:03:26.725536","MEAN_MOTION":13.96623035,"ECCENTRICITY":0.00092952,"INCLINATION":88.9737,"RA_OF_ASC_NODE":69.5533,"ARG_OF_PERICENTER":73.638,"MEAN_ANOMALY":286.5818,"EPHEMERIS_TYPE":0,"CLASSIFICATION_TYPE":"U","NORAD_CAT_ID":61566,"ELEMENT_SET_NO":999,"REV_AT_EPOCH":8072,"BSTAR":0.0003759452,"MEAN_MOTION_DOT":5.34e-6,"MEAN_MOTION_DDOT":0},{"OBJECT_NAME":"QIANFAN-34","OBJECT_ID":"2024-185R","EPOCH":"2026-03-05T13:37:56.733600","MEAN_MOTION":14.02383102,"ECCENTRICITY":0.00083036,"INCLINATION":88.9713,"RA_OF_ASC_NODE":69.0089,"ARG_OF_PERICENTER":77.2964,"MEAN_ANOMALY":282.9144,"EPHEMERIS_TYPE":0,"CLASSIFICATION_TYPE":"U","NORAD_CAT_ID":61567,"ELEMENT_SET_NO":999,"REV_AT_EPOCH":8096,"BSTAR":0.0003665647,"MEAN_MOTION_DOT":5.76e-6,"MEAN_MOTION_DDOT":0}]
