QIANFAN-18              
1 60396U 24140T   26064.59070232  .00000113  00000+0  15610-3 0  9991
2 60396  88.9721 290.4030 0013134 315.1489  44.8600 13.51003677 78710
QIANFAN-19              
1 61552U 24185A   26064.64405884  .00000675  00000+0  34544-3 0  9996
2 61552  88.9759  68.4219 0008630  50.9103 309.2851 14.14387260 81386
QIANFAN-20              
1 61553U 24185B   26064.57107245  .00000659  00000+0  37293-3 0  9995
2 61553  88.9756  68.8378 0007893  82.7572 277.4509 14.08933559 81159
QIANFAN-21              
1 61554U 24185C   26064.60542640  .00000869  00000+0  38154-3 0  9992
2 61554  88.9677  67.2537 0013018  92.8767 267.3915 14.22728308 81751
QIANFAN-22              
1 61555U 24185D   26064.64989138  .00000321  00000+0  26584-3 0  9991
2 61555  88.9740  70.1451 0008605  99.9355 260.2788 13.86338847 80425
QIANFAN-23              
1 61556U 24185E   26064.64386480  .00000746  00000+0  36833-3 0  9992
2 61556  88.9751  68.1926 0009569  58.7788 301.4337 14.16392441 81484
QIANFAN-24              
1 61557U 24185F   26064.60853327  .00001049  00000+0  45140-3 0  9996
2 61557  88.9735  67.4661 0010607  38.9956 321.2000 14.23932444 81812
QIANFAN-25              
1 61558U 24185G   26064.56565551  .00000589  00000+0  35092-3 0  9994
2 61558  88.9748  68.7966 0011915  65.5993 294.6432 14.05995162 81143
QIANFAN-26              
1 61559U 24185H   26064.61003312  .00000303  00000+0  28947-3 0  9998
2 61559  88.9746  70.7896 0007689 112.7225 247.4755 13.77861457 80086
QIANFAN-27              
1 61560U 24185J   26064.60999877  .00000724  00000+0  28926-3 0  9993
2 61560  88.9748  67.2090 0008658  32.3946 327.7778 14.27443467 81981
QIANFAN-28              
1 61561U 24185K   26064.61952814  .00001204  00000+0  47763-3 0  9999
2 61561  88.9764  67.2150 0008267  33.4124 326.7591 14.28212873 82005
QIANFAN-29              
1 61562U 24185L   26064.61414471  .00000207  00000+0  30084-3 0  9992
2 61562  88.9718  72.7301 0010369 159.7217 200.4348 13.51043640 78984
QIANFAN-30              
1 61563U 24185M   26064.57768000  .00000207  00000+0  30580-3 0  9999
2 61563  88.9738  72.2911 0008669 144.0028 216.1708 13.50018693 79249
QIANFAN-31              
1 61564U 24185N   26064.57540605  .00000221  00000+0  28865-3 0  9998
2 61564  88.9723  71.9613 0008337 135.5940 224.5885 13.58003042 79406
QIANFAN-32              
1 61565U 24185P   26064.64849381  .00000158  00000+0  22655-3 0  9990
2 61565  88.9782  72.4433 0009714 172.5569 187.5728 13.50763937 79239
QIANFAN-33              
1 61566U 24185Q   26064.58572599  .00000534  00000+0  37595-3 0  9995
2 61566  88.9737  69.5533 0009295  73.6380 286.5818 13.96623035 80724
QIANFAN-34              
1 61567U 24185R   26064.56801775  .00000576  00000+0  36656-3 0  9998
2 61567  88.9713  69.0089 0008303  77.2964 282.9144 14.02383102 80961
